{
  "norad_id": 65538,
  "name": "STARLINK-35144",
  "history": [
    {
      "epoch": "2026-03-28T22:11:57.154848Z",
      "apogee_km": 549.9218927808588,
      "perigee_km": 549.0912683155502,
      "latitude_deg": -1.3226385291135825e-05,
      "longitude_deg": -0.5912685260837844,
      "height_km": 552.9822131756989,
      "semi_major_axis_km": 6927.643580548204,
      "eccentricity": 5.995e-05,
      "inclination_deg": 97.6036,
      "raan_deg": 158.7353,
      "arg_perigee_deg": 188.9385,
      "mean_anomaly_deg": 171.1831,
      "mean_motion_rev_day": 15.05651491
    },
    {
      "epoch": "2026-03-29T04:34:44.921280Z",
      "apogee_km": 550.0436383064043,
      "perigee_km": 548.9282910090942,
      "latitude_deg": 1.0826396819547046e-05,
      "longitude_deg": -96.29041307685048,
      "height_km": 553.0282842238271,
      "semi_major_axis_km": 6927.622964657749,
      "eccentricity": 8.05e-05,
      "inclination_deg": 97.6041,
      "raan_deg": 158.9972,
      "arg_perigee_deg": 211.3059,
      "mean_anomaly_deg": 148.812,
      "mean_motion_rev_day": 15.05658212
    },
    {
      "epoch": "2026-03-30T04:30:14.857344Z",
      "apogee_km": 550.0209992457894,
      "perigee_km": 548.9398752685311,
      "latitude_deg": 1.4105871986910212e-05,
      "longitude_deg": -95.16521059075853,
      "height_km": 553.0815411404575,
      "semi_major_axis_km": 6927.6174372571595,
      "eccentricity": 7.803e-05,
      "inclination_deg": 97.6035,
      "raan_deg": 159.9797,
      "arg_perigee_deg": 187.7024,
      "mean_anomaly_deg": 172.4191,
      "mean_motion_rev_day": 15.05660014
    },
    {
      "epoch": "2026-03-30T10:53:02.642784Z",
      "apogee_km": 550.1023345579342,
      "perigee_km": 548.8298724198858,
      "latitude_deg": 2.5932896865019664e-05,
      "longitude_deg": 169.13646730419504,
      "height_km": 553.1603053228639,
      "semi_major_axis_km": 6927.603103488909,
      "eccentricity": 9.184e-05,
      "inclination_deg": 97.6039,
      "raan_deg": 160.2425,
      "arg_perigee_deg": 188.8148,
      "mean_anomaly_deg": 171.3063,
      "mean_motion_rev_day": 15.05664687
    }
  ]
}